{"type": "FeatureCollection", "features": [{"type": "Feature", "properties": {"norad_id": 24946, "name": "IRIDIUM 33", "group": "iridium-33-debris", "lat": -4.768450309255462, "lon": 61.81592079721917, "alt_km": 784.351029074618, "timestamp": "2025-12-27T06:41:31.310765+00:00", "meta": {"OBJECT_NAME": "IRIDIUM 33", "OBJECT_ID": "1997-051C", "EPOCH": "2025-12-26T22:20:48.769728", "MEAN_MOTION": 14.35047197, "ECCENTRICITY": 0.00086906, "INCLINATION": 86.3856, "RA_OF_ASC_NODE": 62.264, "ARG_OF_PERICENTER": 155.1188, "MEAN_ANOMALY": 205.0429, "EPHEMERIS_TYPE": 0, "CLASSIFICATION_TYPE": "U", "NORAD_CAT_ID": 24946, "ELEMENT_SET_NO": 999, "REV_AT_EPOCH": 48038, "BSTAR": 0.00012641632, "MEAN_MOTION_DOT": 3.8e-06, "MEAN_MOTION_DDOT": 0}, "tle": {"line1": "1 24946U 97051C   25360.93112002  .00000380  00000+0  12642-3 0  9999", "line2": "2 24946  86.3856  62.2640 0008690 155.1188 205.0429 14.35047197480381"}}, "geometry": {"type": "Point", "coordinates": [61.81592079721917, -4.768450309255462]}}, {"type": "Feature", "properties": {"norad_id": 33773, "name": "IRIDIUM 33 DEB", "group": "iridium-33-debris", "lat": 22.18950910835167, "lon": 55.899235971002, "alt_km": 746.1447587164093, "timestamp": "2025-12-27T06:41:31.310789+00:00", "meta": {"OBJECT_NAME": "IRIDIUM 33 DEB", "OBJECT_ID": "1997-051L", "EPOCH": "2025-12-26T13:56:59.891136", "MEAN_MOTION": 14.43285398, "ECCENTRICITY": 0.0013338, "INCLINATION": 86.3996, "RA_OF_ASC_NODE": 54.7233, "ARG_OF_PERICENTER": 106.7873, "MEAN_ANOMALY": 253.4792, "EPHEMERIS_TYPE": 0, "CLASSIFICATION_TYPE": "U", "NORAD_CAT_ID": 33773, "ELEMENT_SET_NO": 999, "REV_AT_EPOCH": 88547, "BSTAR": 0.00030304, "MEAN_MOTION_DOT": 1.041e-05, "MEAN_MOTION_DDOT": 0}, "tle": {"line1": "1 33773U 97051L   25360.58124874  .00001041  00000+0  30304-3 0  9998", "line2": "2 33773  86.3996  54.7233 0013338 106.7873 253.4792 14.43285398885471"}}, "geometry": {"type": "Point", "coordinates": [55.899235971002, 22.18950910835167]}}, {"type": "Feature", "properties": {"norad_id": 33775, "name": "IRIDIUM 33 DEB", "group": "iridium-33-debris", "lat": 12.239943921320144, "lon": 44.13620588066906, "alt_km": 756.6041456138528, "timestamp": "2025-12-27T06:41:31.310804+00:00", "meta": {"OBJECT_NAME": "IRIDIUM 33 DEB", "OBJECT_ID": "1997-051N", "EPOCH": "2025-12-26T21:28:14.646144", "MEAN_MOTION": 14.41498944, "ECCENTRICITY": 0.00153961, "INCLINATION": 86.3623, "RA_OF_ASC_NODE": 43.5095, "ARG_OF_PERICENTER": 112.7487, "MEAN_ANOMALY": 67.1996, "EPHEMERIS_TYPE": 0, "CLASSIFICATION_TYPE": "U", "NORAD_CAT_ID": 33775, "ELEMENT_SET_NO": 999, "REV_AT_EPOCH": 88344, "BSTAR": 0.00036931903, "MEAN_MOTION_DOT": 1.22e-05, "MEAN_MOTION_DDOT": 0}, "tle": {"line1": "1 33775U 97051N   25360.89461396  .00001220  00000+0  36932-3 0  9999", "line2": "2 33775  86.3623  43.5095 0015396 112.7487  67.1996 14.41498944883448"}}, "geometry": {"type": "Point", "coordinates": [44.13620588066906, 12.239943921320144]}}, {"type": "Feature", "properties": {"norad_id": 33776, "name": "IRIDIUM 33 DEB", "group": "iridium-33-debris", "lat": 72.51597842777542, "lon": 86.18919774473468, "alt_km": 753.7662411685978, "timestamp": "2025-12-27T06:41:31.310816+00:00", "meta": {"OBJECT_NAME": "IRIDIUM 33 DEB", "OBJECT_ID": "1997-051P", "EPOCH": "2025-12-26T22:49:20.747712", "MEAN_MOTION": 14.3825939, "ECCENTRICITY": 0.00159081, "INCLINATION": 86.403, "RA_OF_ASC_NODE": 74.8077, "ARG_OF_PERICENTER": 145.5662, "MEAN_ANOMALY": 30.8153, "EPHEMERIS_TYPE": 0, "CLASSIFICATION_TYPE": "U", "NORAD_CAT_ID": 33776, "ELEMENT_SET_NO": 999, "REV_AT_EPOCH": 88286, "BSTAR": 0.00029294427, "MEAN_MOTION_DOT": 9.11e-06, "MEAN_MOTION_DDOT": 0}, "tle": {"line1": "1 33776U 97051P   25360.95093458  .00000911  00000+0  29294-3 0  9996", "line2": "2 33776  86.4030  74.8077 0015908 145.5662  30.8153 14.38259390882860"}}, "geometry": {"type": "Point", "coordinates": [86.18919774473468, 72.51597842777542]}}, {"type": "Feature", "properties": {"norad_id": 33777, "name": "IRIDIUM 33 DEB", "group": "iridium-33-debris", "lat": 50.741929727381525, "lon": 33.32279772068278, "alt_km": 705.9146597260096, "timestamp": "2025-12-27T06:41:31.310828+00:00", "meta": {"OBJECT_NAME": "IRIDIUM 33 DEB", "OBJECT_ID": "1997-051Q", "EPOCH": "2025-12-26T20:33:37.299744", "MEAN_MOTION": 14.55711691, "ECCENTRICITY": 0.00065148, "INCLINATION": 86.3775, "RA_OF_ASC_NODE": 29.0607, "ARG_OF_PERICENTER": 190.6347, "MEAN_ANOMALY": 169.4724, "EPHEMERIS_TYPE": 0, "CLASSIFICATION_TYPE": "U", "NORAD_CAT_ID": 33777, "ELEMENT_SET_NO": 999, "REV_AT_EPOCH": 88739, "BSTAR": 0.00095800363, "MEAN_MOTION_DOT": 4.209e-05, "MEAN_MOTION_DDOT": 0}, "tle": {"line1": "1 33777U 97051Q   25360.85668171  .00004209  00000+0  95800-3 0  9996", "line2": "2 33777  86.3775  29.0607 0006514 190.6347 169.4724 14.55711691887393"}}, "geometry": {"type": "Point", "coordinates": [33.32279772068278, 50.741929727381525]}}, {"type": "Feature", "properties": {"norad_id": 33850, "name": "IRIDIUM 33 DEB", "group": "iridium-33-debris", "lat": 28.68570516167155, "lon": 25.933679646243803, "alt_km": 749.858597562139, "timestamp": "2025-12-27T06:41:31.310840+00:00", "meta": {"OBJECT_NAME": "IRIDIUM 33 DEB", "OBJECT_ID": "1997-051T", "EPOCH": "2025-12-26T19:42:08.737344", "MEAN_MOTION": 14.4218265, "ECCENTRICITY": 0.00133625, "INCLINATION": 86.3409, "RA_OF_ASC_NODE": 24.124, "ARG_OF_PERICENTER": 119.2771, "MEAN_ANOMALY": 53.885, "EPHEMERIS_TYPE": 0, "CLASSIFICATION_TYPE": "U", "NORAD_CAT_ID": 33850, "ELEMENT_SET_NO": 999, "REV_AT_EPOCH": 88355, "BSTAR": 0.00045325222, "MEAN_MOTION_DOT": 1.513e-05, "MEAN_MOTION_DDOT": 0}, "tle": {"line1": "1 33850U 97051T   25360.82093446  .00001513  00000+0  45325-3 0  9994", "line2": "2 33850  86.3409  24.1240 0013362 119.2771  53.8850 14.42182650883558"}}, "geometry": {"type": "Point", "coordinates": [25.933679646243803, 28.68570516167155]}}, {"type": "Feature", "properties": {"norad_id": 33853, "name": "IRIDIUM 33 DEB", "group": "iridium-33-debris", "lat": -36.78481800387086, "lon": -19.563550604291553, "alt_km": 1003.0948146278415, "timestamp": "2025-12-27T06:41:31.310851+00:00", "meta": {"OBJECT_NAME": "IRIDIUM 33 DEB", "OBJECT_ID": "1997-051W", "EPOCH": "2025-12-26T22:39:28.276128", "MEAN_MOTION": 13.99129868, "ECCENTRICITY": 0.02078544, "INCLINATION": 86, "RA_OF_ASC_NODE": 343.582, "ARG_OF_PERICENTER": 192.009, "MEAN_ANOMALY": 244.3161, "EPHEMERIS_TYPE": 0, "CLASSIFICATION_TYPE": "U", "NORAD_CAT_ID": 33853, "ELEMENT_SET_NO": 999, "REV_AT_EPOCH": 85544, "BSTAR": 0.0013824341, "MEAN_MOTION_DOT": 2.427e-05, "MEAN_MOTION_DDOT": 0}, "tle": {"line1": "1 33853U 97051W   25360.94407727  .00002427  00000+0  13824-2 0  9994", "line2": "2 33853  86.0000 343.5820 0207854 192.0090 244.3161 13.99129868855443"}}, "geometry": {"type": "Point", "coordinates": [-19.563550604291553, -36.78481800387086]}}, {"type": "Feature", "properties": {"norad_id": 33860, "name": "IRIDIUM 33 DEB", "group": "iridium-33-debris", "lat": -24.57151631395235, "lon": -157.5418926679561, "alt_km": 674.9292593601849, "timestamp": "2025-12-27T06:41:31.310863+00:00", "meta": {"OBJECT_NAME": "IRIDIUM 33 DEB", "OBJECT_ID": "1997-051AD", "EPOCH": "2025-12-26T19:07:15.554784", "MEAN_MOTION": 14.67538628, "ECCENTRICITY": 0.0005824, "INCLINATION": 86.3826, "RA_OF_ASC_NODE": 21.014, "ARG_OF_PERICENTER": 301.0056, "MEAN_ANOMALY": 238.0804, "EPHEMERIS_TYPE": 0, "CLASSIFICATION_TYPE": "U", "NORAD_CAT_ID": 33860, "ELEMENT_SET_NO": 999, "REV_AT_EPOCH": 88928, "BSTAR": 0.0012282468, "MEAN_MOTION_DOT": 6.989e-05, "MEAN_MOTION_DDOT": 0}, "tle": {"line1": "1 33860U 97051AD  25360.79670781  .00006989  00000+0  12282-2 0  9991", "line2": "2 33860  86.3826  21.0140 0005824 301.0056 238.0804 14.67538628889287"}}, "geometry": {"type": "Point", "coordinates": [-157.5418926679561, -24.57151631395235]}}, {"type": "Feature", "properties": {"norad_id": 33862, "name": "IRIDIUM 33 DEB", "group": "iridium-33-debris", "lat": -8.922048053958264, "lon": 30.552132638751793, "alt_km": 634.1710092637722, "timestamp": "2025-12-27T06:41:31.310874+00:00", "meta": {"OBJECT_NAME": "IRIDIUM 33 DEB", "OBJECT_ID": "1997-051AF", "EPOCH": "2025-12-26T14:56:06.808128", "MEAN_MOTION": 14.69701742, "ECCENTRICITY": 0.0051898, "INCLINATION": 86.4083, "RA_OF_ASC_NODE": 31.4067, "ARG_OF_PERICENTER": 22.4772, "MEAN_ANOMALY": 97.5758, "EPHEMERIS_TYPE": 0, "CLASSIFICATION_TYPE": "U", "NORAD_CAT_ID": 33862, "ELEMENT_SET_NO": 999, "REV_AT_EPOCH": 89027, "BSTAR": 0.0015611, "MEAN_MOTION_DOT": 9.518e-05, "MEAN_MOTION_DDOT": 0}, "tle": {"line1": "1 33862U 97051AF  25360.62230102  .00009518  00000+0  15611-2 0  9994", "line2": "2 33862  86.4083  31.4067 0051898  22.4772  97.5758 14.69701742890277"}}, "geometry": {"type": "Point", "coordinates": [30.552132638751793, -8.922048053958264]}}, {"type": "Feature", "properties": {"norad_id": 33866, "name": "IRIDIUM 33 DEB", "group": "iridium-33-debris", "lat": -81.7821283723341, "lon": -66.49453351420223, "alt_km": 884.3144767233753, "timestamp": "2025-12-27T06:41:31.310885+00:00", "meta": {"OBJECT_NAME": "IRIDIUM 33 DEB", "OBJECT_ID": "1997-051AK", "EPOCH": "2025-12-26T16:41:52.800864", "MEAN_MOTION": 14.25317881, "ECCENTRICITY": 0.0115243, "INCLINATION": 86.2998, "RA_OF_ASC_NODE": 87.1316, "ARG_OF_PERICENTER": 117.1752, "MEAN_ANOMALY": 34.7291, "EPHEMERIS_TYPE": 0, "CLASSIFICATION_TYPE": "U", "NORAD_CAT_ID": 33866, "ELEMENT_SET_NO": 999, "REV_AT_EPOCH": 87009, "BSTAR": 0.00062512122, "MEAN_MOTION_DOT": 1.597e-05, "MEAN_MOTION_DDOT": 0}, "tle": {"line1": "1 33866U 97051AK  25360.69575001  .00001597  00000+0  62512-3 0  9997", "line2": "2 33866  86.2998  87.1316 0115243 117.1752  34.7291 14.25317881870096"}}, "geometry": {"type": "Point", "coordinates": [-66.49453351420223, -81.7821283723341]}}]}